{
    "links": {
        "self": "http://www.neowsapp.com/rest/v1/neo/3838135?api_key=iIulBulltgU6a56xZRHN4H3l9WmuAYTsLGpBGhQ2"
    },
    "id": "3838135",
    "neo_reference_id": "3838135",
    "name": "(2019 CZ1)",
    "designation": "2019 CZ1",
    "nasa_jpl_url": "http://ssd.jpl.nasa.gov/sbdb.cgi?sstr=3838135",
    "absolute_magnitude_h": 24.2,
    "estimated_diameter": {
        "kilometers": {
            "estimated_diameter_min": 0.0384197891,
            "estimated_diameter_max": 0.0859092601
        },
        "meters": {
            "estimated_diameter_min": 38.4197891064,
            "estimated_diameter_max": 85.9092601232
        },
        "miles": {
            "estimated_diameter_min": 0.0238729428,
            "estimated_diameter_max": 0.0533815229
        },
        "feet": {
            "estimated_diameter_min": 126.0491808919,
            "estimated_diameter_max": 281.8545369825
        }
    },
    "is_potentially_hazardous_asteroid": false,
    "close_approach_data": [
        {
            "close_approach_date": "2019-01-25",
            "close_approach_date_full": "2019-Jan-25 09:25",
            "epoch_date_close_approach": 1548408300000,
            "relative_velocity": {
                "kilometers_per_second": "21.7418147029",
                "kilometers_per_hour": "78270.532930305",
                "miles_per_hour": "48634.2653088331"
            },
            "miss_distance": {
                "astronomical": "0.0552233959",
                "lunar": "21.4819010051",
                "kilometers": "8261302.400806733",
                "miles": "5133335.2759415954"
            },
            "orbiting_body": "Earth"
        }
    ],
    "orbital_data": {
        "orbit_id": "4",
        "orbit_determination_date": "2019-02-14 07:18:25",
        "first_observation_date": "2019-02-04",
        "last_observation_date": "2019-02-12",
        "data_arc_in_days": 8,
        "observations_used": 34,
        "orbit_uncertainty": "9",
        "minimum_orbit_intersection": ".0169941",
        "jupiter_tisserand_invariant": "3.004",
        "epoch_osculation": "2458520.5",
        "eccentricity": ".7729860430137615",
        "semi_major_axis": "2.428695118676462",
        "inclination": "6.527397082645551",
        "ascending_node_longitude": "136.5287348802578",
        "orbital_period": "1382.47703828917",
        "perihelion_distance": ".5513476892039058",
        "perihelion_argument": "260.6203857840388",
        "aphelion_distance": "4.306042548149018",
        "perihelion_time": "2458464.888602894603",
        "mean_anomaly": "14.48132764846352",
        "mean_motion": ".2604021549938391",
        "equinox": "J2000",
        "orbit_class": {
            "orbit_class_type": "APO",
            "orbit_class_description": "Near-Earth asteroid orbits which cross the Earth’s orbit similar to that of 1862 Apollo",
            "orbit_class_range": "a (semi-major axis) > 1.0 AU; q (perihelion) < 1.017 AU"
        }
    },
    "is_sentry_object": false
}